ONEWEB-0697             
1 61603U 24188K   25075.91668981  .00000015  00000+0  00000+0 0  9990
2 61603  87.4151 112.8174 0003606 106.8609  49.0456 13.60746860 22725
ONEWEB-0698             
1 61604U 24188L   25075.91668981  .00000015  00000+0  00000+0 0  9991
2 61604  87.4176 112.8502 0006601  83.4983  44.4287 13.63659926 22507
ONEWEB-0699             
1 61605U 24188M   25075.60510571  .00000225  00000+0  60957-3 0  9993
2 61605  87.8837 127.4766 0002217  88.5788 271.5593 13.10373260 23384
ONEWEB-0700             
1 61606U 24188N   25075.60667601 -.00001190  00000+0 -34458-2 0  9991
2 61606  87.8748 127.4672 0001473  90.0692 270.0604 13.10378389 23370
ONEWEB-0701             
1 61607U 24188P   25075.54697652 -.00000615  00000+0 -17986-2 0  9992
2 61607  87.8841 127.4944 0001795  74.2068 285.9257 13.10373207 23378
ONEWEB-0702             
1 61608U 24188Q   25075.91668981  .00000016  00000+0  00000+0 0  9996
2 61608  87.4739 112.8126 0008127  84.0749   7.6611 13.68213111 22554
ONEWEB-0704             
1 61609U 24188R   25075.61158722 -.00000187  00000+0 -57063-3 0  9997
2 61609  87.8865 127.3869 0001289  71.9044 288.2224 13.10367926 23367
ONEWEB-0705             
1 61610U 24188S   25075.61668431 -.00000610  00000+0 -17832-2 0  9992
2 61610  87.8826 127.4796 0000825 116.9808 243.1403 13.10366599 15533
